KUIPER-00027            
1 63740U 25088S   25354.51537509  .00003807  00000+0  52770-3 0  9998
2 63740  51.9013  85.6849 0003709 254.1837 105.8717 14.79973283 35897
KUIPER-00028            
1 63741U 25088T   25355.20713296  .00001297  00000+0  20024-3 0  9993
2 63741  51.9009  80.5929 0003797 277.7187  82.3344 14.79703339 36431
KUIPER-00029            
1 63742U 25088U   25355.00002315 -.00003849  00000+0 -51441-3 0  9999
2 63742  51.9015  79.3895 0008431 219.1840 284.1719 14.76689046  4802
KUIPER-00030            
1 63743U 25088V   25354.49919424 -.00024214  00000+0 -31486-2 0  9995
2 63743  51.9042 100.7198 0015948 165.7582 194.3833 14.79964531 35900
KUIPER-00031            
1 63744U 25088W   25354.51376120  .00002298  00000+0  33027-3 0  9999
2 63744  51.9012  86.7261 0003726 204.8471 155.2313 14.79955489 35816
KUIPER-00032            
1 63745U 25088X   25355.17289231  .00008340  00000+0  26204-3 0  9992
2 63745  51.8725  42.7887 0003501 205.5670 154.5143 15.33840564 37489
KUIPER-00033            
1 63746U 25088Y   25354.61653315  .00005171  00000+0  70601-3 0  9998
2 63746  51.9024 116.2588 0003352 265.8202  94.2377 14.79983161 35894
KUIPER-00034            
1 63747U 25088Z   25354.92705897  .00005732  00000+0  77994-3 0  9991
2 63747  51.9031  77.4018 0001118 212.5780 147.5113 14.79946762 36142
